{"fetched_at":"2026-03-29T02:12:04Z","count":15717,"tles":[{"name":"BEIDOU-2 IGSO-5 (C10)","line1":"1 37948U 11073A   26087.49184589 -.00000156  00000+0  00000+0 0  9995","line2":"2 37948  47.8262 272.5386 0109314 220.7131 324.4481  1.00266601 52329","category":"GPS"}]}